[
    {
        "Altitude(m)": 617719.7197714408,
        "Argument of Periapsis(deg)": 0.0,
        "Eccentricity": 0.0,
        "Inclination(deg)": 60.0,
        "Latitude(deg)": -41.1025015738087,
        "Longitude(deg)": 115.09460292167728,
        "Mean Anomaly(deg)": 229.09090000000006,
        "RAAN(deg)": 5.0,
        "Satellite Name": "Test1 36",
        "Satellite Number": 36,
        "Semi-Major Axis(m)": 6980739.136638005,
        "Time(s)": 0
    },
    {
        "Altitude(m)": 617911.2557364133,
        "Argument of Periapsis(deg)": 0.00010418945913296404,
        "Eccentricity": 0.0,
        "Inclination(deg)": 60.0,
        "Latitude(deg)": -41.565694016568344,
        "Longitude(deg)": 115.59900767305379,
        "Mean Anomaly(deg)": 229.71100614546188,
        "RAAN(deg)": 4.999579950860257,
        "Satellite Name": "Test1 36",
        "Satellite Number": 36,
        "Semi-Major Axis(m)": 6980739.136638005,
        "Time(s)": 10
    },
    {
        "Altitude(m)": 618101.6664960221,
        "Argument of Periapsis(deg)": 0.0002083789182659281,
        "Eccentricity": 0.0,
        "Inclination(deg)": 60.0,
        "Latitude(deg)": -42.02620797281483,
        "Longitude(deg)": 116.1112197537587,
        "Mean Anomaly(deg)": 230.3311122909237,
        "RAAN(deg)": 4.999159901720515,
        "Satellite Name": "Test1 36",
        "Satellite Number": 36,
        "Semi-Major Axis(m)": 6980739.136638005,
        "Time(s)": 20
    },
    {
        "Altitude(m)": 618290.8790229007,
        "Argument of Periapsis(deg)": 0.00031256837739889213,
        "Eccentricity": 0.0,
        "Inclination(deg)": 60.0,
        "Latitude(deg)": -42.4839631964227,
        "Longitude(deg)": 116.63143384783062,
        "Mean Anomaly(deg)": 230.95121843638552,
        "RAAN(deg)": 4.998739852580773,
        "Satellite Name": "Test1 36",
        "Satellite Number": 36,
        "Semi-Major Axis(m)": 6980739.136638005,
        "Time(s)": 30
    },
    {
        "Altitude(m)": 618478.8206668904,
        "Argument of Periapsis(deg)": 0.0004167578365318562,
        "Eccentricity": 0.0,
        "Inclination(deg)": 60.0,
        "Latitude(deg)": -42.93887691623524,
        "Longitude(deg)": 117.15984843297194,
        "Mean Anomaly(deg)": 231.57132458184736,
        "RAAN(deg)": 4.99831980344103,
        "Satellite Name": "Test1 36",
        "Satellite Number": 36,
        "Semi-Major Axis(m)": 6980739.136638005,
        "Time(s)": 40
    },
    {
        "Altitude(m)": 618665.4191866954,
        "Argument of Periapsis(deg)": 0.0005209472956648203,
        "Eccentricity": 0.0,
        "Inclination(deg)": 60.0,
        "Latitude(deg)": -43.39086375795225,
        "Longitude(deg)": 117.69666468263749,
        "Mean Anomaly(deg)": 232.19143072730915,
        "RAAN(deg)": 4.997899754301287,
        "Satellite Name": "Test1 36",
        "Satellite Number": 36,
        "Semi-Major Axis(m)": 6980739.136638005,
        "Time(s)": 50
    },
    {
        "Altitude(m)": 618850.6027813202,
        "Argument of Periapsis(deg)": 0.0006251367547977843,
        "Eccentricity": 0.0,
        "Inclination(deg)": 60.0,
        "Latitude(deg)": -43.839835665376654,
        "Longitude(deg)": 118.2420868612434,
        "Mean Anomaly(deg)": 232.811536872771,
        "RAAN(deg)": 4.9974797051615445,
        "Satellite Name": "Test1 36",
        "Satellite Number": 36,
        "Semi-Major Axis(m)": 6980739.136638005,
        "Time(s)": 60
    },
    {
        "Altitude(m)": 619034.3001213239,
        "Argument of Periapsis(deg)": 0.0007293262139307483,
        "Eccentricity": 0.0,
        "Inclination(deg)": 60.0,
        "Latitude(deg)": -44.28570182125304,
        "Longitude(deg)": 118.79632269775932,
        "Mean Anomaly(deg)": 233.43164301823282,
        "RAAN(deg)": 4.9970596560218015,
        "Satellite Name": "Test1 36",
        "Satellite Number": 36,
        "Semi-Major Axis(m)": 6980739.136638005,
        "Time(s)": 70
    },
    {
        "Altitude(m)": 619216.4403798121,
        "Argument of Periapsis(deg)": 0.0008335156730637124,
        "Eccentricity": 0.0,
        "Inclination(deg)": 60.0,
        "Latitude(deg)": -44.72836856796229,
        "Longitude(deg)": 119.3595822228263,
        "Mean Anomaly(deg)": 234.05174916369467,
        "RAAN(deg)": 4.996639606882058,
        "Satellite Name": "Test1 36",
        "Satellite Number": 36,
        "Semi-Major Axis(m)": 6980739.136638005,
        "Time(s)": 80
    },
    {
        "Altitude(m)": 619396.9532632096,
        "Argument of Periapsis(deg)": 0.0009377051321966765,
        "Eccentricity": 0.0,
        "Inclination(deg)": 60.0,
        "Latitude(deg)": -45.167739328376065,
        "Longitude(deg)": 119.9320780930356,
        "Mean Anomaly(deg)": 234.67185530915646,
        "RAAN(deg)": 4.996219557742316,
        "Satellite Name": "Test1 36",
        "Satellite Number": 36,
        "Semi-Major Axis(m)": 6980739.136638005,
        "Time(s)": 90
    },
    {
        "Altitude(m)": 619575.7690417605,
        "Argument of Periapsis(deg)": 0.0010418945913296407,
        "Eccentricity": 0.0,
        "Inclination(deg)": 60.0,
        "Latitude(deg)": -45.603714527214564,
        "Longitude(deg)": 120.51402588727566,
        "Mean Anomaly(deg)": 235.2919614546183,
        "RAAN(deg)": 4.995799508602573,
        "Satellite Name": "Test1 36",
        "Satellite Number": 36,
        "Semi-Major Axis(m)": 6980739.136638005,
        "Time(s)": 100
    },
    {
        "Altitude(m)": 619752.8185797696,
        "Argument of Periapsis(deg)": 0.0011460840504626045,
        "Eccentricity": 0.0,
        "Inclination(deg)": 60.0,
        "Latitude(deg)": -46.03619151328855,
        "Longitude(deg)": 121.10564285992939,
        "Mean Anomaly(deg)": 235.91206760008015,
        "RAAN(deg)": 4.995379459462831,
        "Satellite Name": "Test1 36",
        "Satellite Number": 36,
        "Semi-Major Axis(m)": 6980739.136638005,
        "Time(s)": 110
    },
    {
        "Altitude(m)": 619928.0333655478,
        "Argument of Periapsis(deg)": 0.0012502735095955685,
        "Eccentricity": 0.0,
        "Inclination(deg)": 60.0,
        "Latitude(deg)": -46.46506448306175,
        "Longitude(deg)": 121.70714817420998,
        "Mean Anomaly(deg)": 236.53217374554197,
        "RAAN(deg)": 4.994959410323088,
        "Satellite Name": "Test1 36",
        "Satellite Number": 36,
        "Semi-Major Axis(m)": 6980739.136638005,
        "Time(s)": 120
    },
    {
        "Altitude(m)": 620101.345541083,
        "Argument of Periapsis(deg)": 0.0013544629687285324,
        "Eccentricity": 0.0,
        "Inclination(deg)": 60.0,
        "Latitude(deg)": -46.89022440601294,
        "Longitude(deg)": 122.3187631001996,
        "Mean Anomaly(deg)": 237.15227989100384,
        "RAAN(deg)": 4.994539361183345,
        "Satellite Name": "Test1 36",
        "Satellite Number": 36,
        "Semi-Major Axis(m)": 6980739.136638005,
        "Time(s)": 130
    },
    {
        "Altitude(m)": 620272.687931391,
        "Argument of Periapsis(deg)": 0.0014586524278614966,
        "Eccentricity": 0.0,
        "Inclination(deg)": 60.0,
        "Latitude(deg)": -47.31155895233115,
        "Longitude(deg)": 122.94070966205626,
        "Mean Anomaly(deg)": 237.77238603646566,
        "RAAN(deg)": 4.994119312043602,
        "Satellite Name": "Test1 36",
        "Satellite Number": 36,
        "Semi-Major Axis(m)": 6980739.136638005,
        "Time(s)": 140
    },
    {
        "Altitude(m)": 620441.9940735303,
        "Argument of Periapsis(deg)": 0.0015628418869944607,
        "Eccentricity": 0.0,
        "Inclination(deg)": 60.0,
        "Latitude(deg)": -47.72895242353993,
        "Longitude(deg)": 123.5732107573827,
        "Mean Anomaly(deg)": 238.3924921819275,
        "RAAN(deg)": 4.99369926290386,
        "Satellite Name": "Test1 36",
        "Satellite Number": 36,
        "Semi-Major Axis(m)": 6980739.136638005,
        "Time(s)": 150
    },
    {
        "Altitude(m)": 620609.1982453392,
        "Argument of Periapsis(deg)": 0.0016670313461274247,
        "Eccentricity": 0.0,
        "Inclination(deg)": 60.0,
        "Latitude(deg)": -48.1422856867002,
        "Longitude(deg)": 124.21649023306063,
        "Mean Anomaly(deg)": 239.0125983273893,
        "RAAN(deg)": 4.993279213764118,
        "Satellite Name": "Test1 36",
        "Satellite Number": 36,
        "Semi-Major Axis(m)": 6980739.136638005,
        "Time(s)": 160
    },
    {
        "Altitude(m)": 620774.235493754,
        "Argument of Periapsis(deg)": 0.0017712208052603888,
        "Eccentricity": 0.0,
        "Inclination(deg)": 60.0,
        "Latitude(deg)": -48.55143611290897,
        "Longitude(deg)": 124.87077140180932,
        "Mean Anomaly(deg)": 239.63270447285115,
        "RAAN(deg)": 4.992859164624375,
        "Satellite Name": "Test1 36",
        "Satellite Number": 36,
        "Semi-Major Axis(m)": 6980739.136638005,
        "Time(s)": 170
    },
    {
        "Altitude(m)": 620937.0416628466,
        "Argument of Periapsis(deg)": 0.001875410264393353,
        "Eccentricity": 0.0,
        "Inclination(deg)": 60.0,
        "Latitude(deg)": -48.95627752087937,
        "Longitude(deg)": 125.5362770223019,
        "Mean Anomaly(deg)": 240.25281061831296,
        "RAAN(deg)": 4.992439115484632,
        "Satellite Name": "Test1 36",
        "Satellite Number": 36,
        "Semi-Major Axis(m)": 6980739.136638005,
        "Time(s)": 180
    },
    {
        "Altitude(m)": 621097.5534214405,
        "Argument of Periapsis(deg)": 0.0019795997235263173,
        "Eccentricity": 0.0,
        "Inclination(deg)": 60.0,
        "Latitude(deg)": -49.356680126455025,
        "Longitude(deg)": 126.21322922706672,
        "Mean Anomaly(deg)": 240.8729167637748,
        "RAAN(deg)": 4.992019066344889,
        "Satellite Name": "Test1 36",
        "Satellite Number": 36,
        "Semi-Major Axis(m)": 6980739.136638005,
        "Time(s)": 190
    }
]